OBJECT_NAME,OBJECT_ID,EPOCH,MEAN_MOTION,ECCENTRICITY,INCLINATION,RA_OF_ASC_NODE,ARG_OF_PERICENTER,MEAN_ANOMALY,EPHEMERIS_TYPE,CLASSIFICATION_TYPE,NORAD_CAT_ID,ELEMENT_SET_NO,REV_AT_EPOCH,BSTAR,MEAN_MOTION_DOT,MEAN_MOTION_DDOT
CINEMA-3 (KHUSAT-2),2013-066L,2026-06-04T16:31:01.027776,14.78272121,.0088475,97.8409,68.2089,252.5982,106.5540,0,U,39426,999,67260,.18336E-3,.1364E-4,0
TRITON-1,2013-066M,2026-06-05T06:35:51.043776,14.81661319,.00884382,97.8255,66.3532,273.4737,85.6364,0,U,39427,999,67232,.27964446E-3,.2296E-4,0
DELFI-N3XT,2013-066N,2026-06-05T06:20:38.669280,14.94959201,.00727134,97.8344,76.5876,245.8311,113.5295,0,U,39428,999,67284,.54595931E-3,.6224E-4,0
GOMX-1,2013-066Q,2026-06-05T06:27:56.117664,14.69412923,.01300331,97.6487,357.4837,115.3714,246.1022,0,U,39430,999,66816,.35190238E-3,.2321E-4,0
BRITE-PL1 (LEM),2013-066R,2026-06-05T03:04:38.563104,14.51358991,.01909625,97.7953,269.3285,49.0744,312.6811,0,U,39431,999,66218,.14451088E-3,.682E-5,0
ICUBE-1,2013-066S,2026-06-05T04:34:33.626208,15.25521860,.001675,97.5691,141.7116,21.6786,338.5157,0,U,39432,999,68258,.52720984E-3,.13352E-3,0
VELOX-PII,2013-066Y,2026-06-05T02:32:30.406272,14.93031658,.00536697,97.8744,107.4572,24.6041,335.7721,0,U,39438,999,67603,.36357826E-3,.3829E-4,0
CUBEBUG-2 (LO-74),2013-066AA,2026-06-03T07:55:56.668800,14.93641817,.00594532,97.8904,103.2522,73.9566,286.8190,0,U,39440,999,67492,.47122985E-3,.5093E-4,0
NEE-02 KRYSAOR,2013-066AB,2026-06-04T18:10:04.769760,14.86564783,.0067693,97.8893,95.0615,109.9850,250.8672,0,U,39441,999,67435,.27225E-3,.2457E-4,0
FUNCUBE-1 (AO-73),2013-066AE,2026-06-05T04:33:52.959456,15.09338913,.00346494,97.8278,127.3873,243.1680,116.6003,0,U,39444,999,67785,.42374976E-3,.6789E-4,0
HINCUBE,2013-066AF,2026-06-02T19:43:18.700608,15.08099916,.00311558,97.7965,122.1315,258.9928,100.7795,0,U,39445,999,67736,.42142227E-3,.6507E-4,0
UWE-3,2013-066AG,2026-06-04T15:34:58.249920,14.96922367,.00493262,97.8702,111.6406,3.6109,356.5458,0,U,39446,999,67570,.40572144E-3,.4713E-4,0
COSMOS 2488 (RODNIK-S 7),2013-076A,2026-06-05T06:51:00.497952,12.42905190,.00206815,82.4828,176.1104,119.8801,240.4337,0,U,39483,999,56441,-.26877544E-3,-.27E-6,0
COSMOS 2489 (RODNIK-S 8),2013-076B,2026-06-05T08:10:51.074688,12.42879397,.00225145,82.4864,177.4507,119.8613,240.4708,0,U,39484,999,56447,.49112685E-4,.17E-6,0
COSMOS 2490 (RODNIK-S 9),2013-076C,2026-06-05T07:30:20.668608,12.42877667,.00224409,82.4811,175.5408,134.9426,225.3479,0,U,39485,999,56440,.70842458E-4,.2E-6,0
AIST-1 (RS41),2013-078C,2026-06-05T07:42:57.999168,14.96039916,.00159331,82.4164,282.3685,321.7912,38.2179,0,U,39492,999,67347,.19979974E-3,.2273E-4,0
KAZEOSAT 1,2014-024A,2026-06-05T07:05:46.261248,14.42075478,.00015083,98.3204,229.0380,76.4080,283.7278,0,U,39731,999,63684,.96577296E-4,.275E-5,0
COSMOS 2496 (RODNIK-S 10),2014-028A,2026-06-05T06:29:12.763968,12.42877988,.00211739,82.4444,116.1952,103.4762,256.8679,0,U,39761,999,54603,.11175246E-3,.25E-6,0
COSMOS 2497 (RODNIK-S 11),2014-028B,2026-06-05T05:53:50.101728,12.42893535,.00217716,82.4491,117.8956,98.7996,261.5551,0,U,39762,999,54603,.65028774E-4,.19E-6,0
COSMOS 2498 (RODNIK-S 12),2014-028C,2026-06-05T07:18:40.724064,12.42979555,.00224887,82.4452,116.3510,98.3957,261.9673,0,U,39763,999,54607,-.2469405E-4,.7E-7,0
COSMOS 2499 (RS47),2014-028E,2026-06-05T06:27:21.542112,12.82902543,.02318702,82.4497,260.4694,29.8973,331.5143,0,U,39765,999,56349,.12280667E-3,.44E-6,0
HODOYOSHI-4,2014-033B,2026-06-05T06:24:26.332416,14.88099401,.00235137,97.5450,341.6648,349.0703,11.0000,0,U,40011,999,64703,.16307648E-3,.1455E-4,0
UNISAT-6,2014-033C,2026-06-05T05:34:50.304288,14.88176756,.00464415,97.7872,309.1565,107.6256,253.0041,0,U,40012,999,64438,.39190524E-3,.3629E-4,0
DEIMOS-2,2014-033D,2026-06-05T06:13:07.026240,14.93689584,.00019321,97.5835,31.1660,58.6867,301.4542,0,U,40013,999,63594,.15916049E-3,.1629E-4,0
BUGSAT-1 (TITA),2014-033E,2026-06-05T06:48:31.627296,15.15450453,.00271309,98.0421,248.1377,219.4776,140.4479,0,U,40014,999,65403,.30941406E-3,.5829E-4,0
SAUDISAT 4,2014-033G,2026-06-05T06:48:22.860288,14.79527362,.0046144,97.7570,302.8314,111.5719,249.0420,0,U,40016,999,64431,.11871663E-3,.852E-5,0
APRIZESAT 9,2014-033J,2026-06-05T04:39:04.039200,14.74198073,.00649451,97.9047,289.6866,238.2194,121.2678,0,U,40018,999,64179,.10824943E-3,.685E-5,0
BRITE-CA1 (TORONTO),2014-033L,2026-06-05T06:48:01.748448,14.72659814,.00776073,97.9726,285.4318,315.7555,43.7465,0,U,40020,999,64046,.11859125E-3,.737E-5,0
