0 UNISAT 6
1 40012U 14033C   26156.23252667  .00003629  00000-0  39191-3 0  9997
2 40012  97.7872 309.1565 0046441 107.6256 253.0041 14.88176756644387
0 AIST 1
1 39492U 13078C   26156.32150462  .00002273  00000-0  19980-3 0  9993
2 39492  82.4164 282.3685 0015933 321.7912  38.2179 14.96039916673479
0 HINCUBE
1 39445U 13066AF  26153.82174422  .00006507  00000-0  42142-3 0  9992
2 39445  97.7965 122.1315 0031156 258.9928 100.7795 15.08099916677360
0 FUNCUBE 1
1 39444U 13066AE  26156.19019629  .00006789  00000-0  42375-3 0  9991
2 39444  97.8278 127.3873 0034649 243.1680 116.6003 15.09338913677850
0 BUGSAT 1
1 40014U 14033E   26156.28369939  .00005829  00000-0  30941-3 0  9993
2 40014  98.0421 248.1377 0027131 219.4776 140.4479 15.15450453654037
UWE-3
1 39446U 13066AG  26155.64928530  .00004713  00000-0  40572-3 0  9994
2 39446  97.8702 111.6406 0049326   3.6109 356.5458 14.96922367675703
CUBEBUG-2
1 39440U 13066AA  26154.33051700  .00005093  00000-0  47123-3 0  9990
2 39440  97.8904 103.2522 0059453  73.9566 286.8190 14.93641817674922
0 GOMX 1
1 39430U 13066Q   26156.26939951  .00002321  00000-0  35190-3 0  9998
2 39430  97.6487 357.4837 0130033 115.3714 246.1022 14.69412923668166
0 NEE 02 KRYSAOR
1 39441U 13066AB  26155.75699965  .00002457  00000-0  27225-3 0  9991
2 39441  97.8893  95.0615 0067693 109.9850 250.8672 14.86564783674353
0 VELOX-P 2
1 39438U 13066Y   26156.10590748  .00003829  00000-0  36358-3 0  9997
2 39438  97.8744 107.4572 0053670  24.6041 335.7721 14.93031658676032
0 ICUBE 1
1 39432U 13066S   26156.19066697  .00013352  00000-0  52721-3 0  9995
2 39432  97.5691 141.7116 0016750  21.6786 338.5157 15.25521860682586
0 BRITE-PL
1 39431U 13066R   26156.12822411  .00000682  00000-0  14451-3 0  9991
2 39431  97.7953 269.3285 0190962  49.0744 312.6811 14.51358991662183
0 DELFI-N3XT
1 39428U 13066N   26156.26433645  .00006224  00000-0  54596-3 0  9991
2 39428  97.8344  76.5876 0072713 245.8311 113.5295 14.94959201672843
0 CINEMA 3
1 39426U 13066L   26155.68820634  .00001364  00000-0  18336-3 0  9994
2 39426  97.8409  68.2089 0088475 252.5982 106.5540 14.78272121672608
0 TRITON 1
1 39427U 13066M   26156.27489634  .00002296  00000-0  27964-3 0  9994
2 39427  97.8255  66.3532 0088438 273.4737  85.6364 14.81661319672324
0 KAZEOSAT 1
1 39731U 14024A   26156.29567432  .00000275  00000-0  96577-4 0  9994
2 39731  98.3204 229.0380 0001508  76.4080 283.7278 14.42075478636840
0 BRITE TORONTO
1 40020U 14033L   26156.28335357  .00000737  00000-0  11859-3 0  9997
2 40020  97.9726 285.4318 0077607 315.7555  43.7465 14.72659814640463
0 COSMOS 2499
1 39765U 14028E   26156.26899933  .00000044  00000-0  12281-3 0  9999
2 39765  82.4497 260.4694 0231870  29.8973 331.5143 12.82902543563499
0 SAUDISAT 4
1 40016U 14033G   26156.28359792  .00000852  00000-0  11872-3 0  9994
2 40016  97.7570 302.8314 0046144 111.5719 249.0420 14.79527362644318
0 APRIZESAT 9
1 40018U 14033J   26156.19379675  .00000685  00000-0  10825-3 0  9999
2 40018  97.9047 289.6866 0064945 238.2194 121.2678 14.74198073641791
0 HODOYOSHI 4
1 40011U 14033B   26156.26697144  .00001455  00000-0  16308-3 0  9992
2 40011  97.5450 341.6648 0023514 349.0703  11.0000 14.88099401647037
0 COSMOS 2488
1 39483U 13076A   26156.28542243 -.00000027  00000-0 -26878-3 0  9999
2 39483  82.4828 176.1104 0020682 119.8801 240.4337 12.42905190564413
0 COSMOS 2489
1 39484U 13076B   26156.34086892  .00000017  00000-0  49113-4 0  9995
2 39484  82.4864 177.4507 0022514 119.8613 240.4708 12.42879397564479
0 COSMOS 2490
1 39485U 13076C   26156.31273922  .00000020  00000-0  70842-4 0  9992
2 39485  82.4811 175.5408 0022441 134.9426 225.3479 12.42877667564408
0 COSMOS 2498
1 39763U 14028C   26156.30463801  .00000007  00000-0 -24694-4 0  9995
2 39763  82.4452 116.3510 0022489  98.3957 261.9673 12.42979555546073
0 COSMOS 2497
1 39762U 14028B   26156.24571877  .00000019  00000-0  65029-4 0  9999
2 39762  82.4491 117.8956 0021772  98.7996 261.5551 12.42893535546036
0 COSMOS 2496
1 39761U 14028A   26156.27028662  .00000025  00000-0  11175-3 0  9999
2 39761  82.4444 116.1952 0021174 103.4762 256.8679 12.42877988546034
0 DEIMOS 2
1 40013U 14033D   26156.25910910  .00001629  00000-0  15916-3 0  9999
2 40013  97.5835  31.1660 0001932  58.6867 301.4542 14.93689584635942
